NORAD_CAT_ID,OBJECT_NAME,OBJECT_TYPE,EPOCH,MEAN_MOTION,ECCENTRICITY,INCLINATION,RA_OF_ASC_NODE,ARG_OF_PERICENTER,MEAN_ANOMALY,BSTAR,MEAN_MOTION_DOT,MEAN_MOTION_DDOT,TLE_LINE0,TLE_LINE1,TLE_LINE2,SEMIMAJOR_AXIS,PERIOD,APOGEE,PERIGEE,DECAYED
53182.0,STARLINK-4278,PAYLOAD,2022-10-25 14:00:01,15.70684579,8.88e-05,53.2165,271.9611,357.2201,113.4916,-0.0095967999999999,-0.01084849,0.0,0 STARLINK-4278,1 53182U 22083BC  22298.58334491 -.01084849  00000-0 -95968-2 0  9999,2 53182  53.2165 271.9611 0000888 357.2201 113.4916 15.70684579 16390,6735.076,91.68,357.539,356.343,0.0
53182.0,STARLINK-4278,PAYLOAD,2022-10-25 22:00:01,15.69926082,0.0001257,53.2164,270.3166,54.6202,141.5694,-0.0098794,-0.0108215,0.0,0 STARLINK-4278,1 53182U 22083BC  22298.91668981 -.01082150  00000-0 -98794-2 0  9993,2 53182  53.2164 270.3166 0001257  54.6202 141.5694 15.69926082  1303,6737.245,91.724,359.957,358.264,0.0
53182.0,STARLINK-4278,PAYLOAD,2022-10-26 14:00:01,15.68384376,9.8e-05,53.2174,267.0357,80.6704,283.5571,-0.0102099999999999,-0.01052027,0.0,0 STARLINK-4278,1 53182U 22083BC  22299.58334491 -.01052027  00000-0 -10210-1 0  9999,2 53182  53.2174 267.0357 0000980  80.6704 283.5571 15.68384376  1301,6741.66,91.814,364.186,362.864,0.0
53182.0,STARLINK-4278,PAYLOAD,2022-10-26 22:00:00,15.67623399,0.0001152,53.2177,265.3972,68.9751,17.9293,-0.0105,-0.01048891,0.0,0 STARLINK-4278,1 53182U 22083BC  22299.91667824 -.01048891  00000-0 -10500-1 0  9991,2 53182  53.2177 265.3972 0001152  68.9751  17.9293 15.67623399 16600,6743.840999999999,91.859,366.483,364.93,0.0
53182.0,STARLINK-4278,PAYLOAD,2022-10-27 14:00:01,15.66110489,0.0001154,53.2167,262.1292,79.1682,170.4136,-0.011284,-0.0105856,0.0,0 STARLINK-4278,1 53182U 22083BC  22300.58335648 -.01058560  00000-0 -11284-1 0  9997,2 53182  53.2167 262.1292 0001154  79.1682 170.4136 15.66110489  1300,6748.184,91.948,370.828,369.27,0.0
53182.0,STARLINK-4278,PAYLOAD,2022-10-27 22:00:00,15.65345322,0.0001053,53.2175,260.4956,84.7471,244.7108,-0.011515,-0.01048417,0.0,0 STARLINK-4278,1 53182U 22083BC  22300.91667824 -.01048417  00000-0 -11515-1 0  9995,2 53182  53.2175 260.4956 0001053  84.7471 244.7108 15.65345322  1302,6750.3830000000025,91.992,372.959,371.537,0.0
53182.0,STARLINK-4278,PAYLOAD,2022-10-28 14:00:01,15.63827119,0.0001158,53.2172,257.2381,75.2895,51.3723,-0.01226,-0.01050221,0.0,0 STARLINK-4278,1 53182U 22083BC  22301.58335648 -.01050221  00000-0 -12260-1 0  9999,2 53182  53.2172 257.2381 0001158  75.2895  51.3723 15.63827119 16865,6754.751,92.082,377.398,375.834,0.0
53182.0,STARLINK-4278,PAYLOAD,2022-10-28 22:00:01,15.63073955,0.0001231999999999,53.2166,255.6115,80.1295,123.729,-0.012718,-0.0107322,0.0,0 STARLINK-4278,1 53182U 22083BC  22301.91668981 -.01073220  00000-0 -12718-1 0  9997,2 53182  53.2166 255.6115 0001232  80.1295 123.7290 15.63073955  1304,6756.920999999999,92.126,379.61800000000005,377.953,0.0
53182.0,STARLINK-4278,PAYLOAD,2022-10-29 12:00:00,15.61739411,0.0001196,53.2173,252.7697,76.3227,170.3793,-0.013326,-0.01067623,0.0,0 STARLINK-4278,1 53182U 22083BC  22302.50001157 -.01067623  00000-0 -13326-1 0  9995,2 53182  53.2173 252.7697 0001196  76.3227 170.3793 15.61739411  1306,6760.769,92.205,383.443,381.826,0.0
53182.0,STARLINK-4278,PAYLOAD,2022-10-29 22:00:01,15.60789277,0.0001161,53.2168,250.743,71.6229,358.3647,-0.013789,-0.01064873,0.0,0 STARLINK-4278,1 53182U 22083BC  22302.91668981 -.01064873  00000-0 -13789-1 0  9991,2 53182  53.2168 250.7430 0001161  71.6229 358.3647 15.60789277  1305,6763.513000000001,92.261,386.163,384.593,0.0
53182.0,STARLINK-4278,PAYLOAD,2022-10-30 00:00:00,15.60597044,0.0001294,53.2173,250.3382,74.5186,103.8783,-0.013845,-0.01061624,0.0,0 STARLINK-4278,1 53182U 22083BC  22303.00001157 -.01061624  00000-0 -13845-1 0  9992,2 53182  53.2173 250.3382 0001294  74.5186 103.8783 15.60597044 17089,6764.068,92.272,386.809,385.0580000000001,0.0
53182.0,STARLINK-4278,PAYLOAD,2022-10-30 14:00:01,15.59270076,0.0001219,53.2172,247.5064,92.1149,123.9958,-0.014625,-0.01065214,0.0,0 STARLINK-4278,1 53182U 22083BC  22303.58334491 -.01065214  00000-0 -14625-1 0  9991,2 53182  53.2172 247.5064 0001219  92.1149 123.9958 15.59270076  1301,6767.905,92.351,390.595,388.945,0.0
53182.0,STARLINK-4278,PAYLOAD,2022-10-30 22:00:01,15.58512539,0.0001149999999999,53.2164,245.8914,90.2663,197.632,-0.015071,-0.01066283,0.0,0 STARLINK-4278,1 53182U 22083BC  22303.91668981 -.01066283  00000-0 -15071-1 0  9995,2 53182  53.2164 245.8914 0001150  90.2663 197.6320 15.58512539  1304,6770.098000000001,92.396,392.742,391.185,0.0
53182.0,STARLINK-4278,PAYLOAD,2022-10-31 14:00:01,15.56989612,0.0001051,53.2176,242.6653,82.9156,345.6317,-0.015879,-0.01061036,0.0,0 STARLINK-4278,1 53182U 22083BC  22304.58334491 -.01061036  00000-0 -15879-1 0  9992,2 53182  53.2176 242.6653 0001051  82.9156 345.6317 15.56989612  1306,6774.512,92.486,397.089,395.665,0.0
53182.0,STARLINK-4278,PAYLOAD,2022-10-31 22:00:01,15.56227683,0.0001268,53.2165,241.056,83.3053,54.2939,-0.016274,-0.01057244,0.0,0 STARLINK-4278,1 53182U 22083BC  22304.91668981 -.01057244  00000-0 -16274-1 0  9999,2 53182  53.2165 241.0560 0001268  83.3053  54.2939 15.56227683  1301,6776.723000000001,92.531,399.448,397.729,0.0
53182.0,STARLINK-4278,PAYLOAD,2022-11-01 14:00:01,15.54712435,0.0001161,53.2176,237.8408,97.5912,175.1775,-0.017311,-0.01062488,0.0,0 STARLINK-4278,1 53182U 22083BC  22305.58334491 -.01062488  00000-0 -17311-1 0  9998,2 53182  53.2176 237.8408 0001161  97.5912 175.1775 15.54712435  1303,6781.126,92.622,403.778,402.203,0.0
53182.0,STARLINK-4278,PAYLOAD,2022-11-01 22:00:00,15.53957423,0.0001095999999999,53.2166,236.2372,86.6943,252.3203,-0.01791,-0.01068484,0.0,0 STARLINK-4278,1 53182U 22083BC  22305.91667824 -.01068484  00000-0 -17910-1 0  9991,2 53182  53.2166 236.2372 0001096  86.6943 252.3203 15.53957423  1306,6783.321999999999,92.667,405.93,404.444,0.0
53182.0,STARLINK-4278,PAYLOAD,2022-11-02 14:00:01,15.524312599999998,0.0001152,53.2174,233.0328,76.5287,32.249,-0.018722,-0.01057479,0.0,0 STARLINK-4278,1 53182U 22083BC  22306.58334491 -.01057479  00000-0 -18722-1 0  9990,2 53182  53.2174 233.0328 0001152  76.5287  32.2490 15.52431260  1301,6787.767,92.758,410.414,408.85,0.0
53182.0,STARLINK-4278,PAYLOAD,2022-11-02 22:00:00,15.51672725,0.000124,53.2175,231.4342,86.5557,85.73200000000001,-0.019267,-0.01058688,0.0,0 STARLINK-4278,1 53182U 22083BC  22306.91667824 -.01058688  00000-0 -19267-1 0  9994,2 53182  53.2175 231.4342 0001240  86.5557  85.7320 15.51672725  1306,6789.979,92.803,412.686,411.002,0.0
53182.0,STARLINK-4278,PAYLOAD,2022-11-03 14:00:01,15.50102349,0.0001125,53.2167,228.2432,98.7121,197.8701,-0.005676,-0.00312471,0.0,0 STARLINK-4278,1 53182U 22083BC  22307.58334491 -.00312471  00000-0 -56760-2 0  9991,2 53182  53.2167 228.2432 0001125  98.7121 197.8701 15.50102349 17792,6794.564,92.897,417.193,415.665,0.0
53182.0,STARLINK-4278,PAYLOAD,2022-11-03 22:00:00,15.49901737,0.0001244,53.2175,226.6489,87.6496,269.9629,-0.00069197,-0.00039549,0.0,0 STARLINK-4278,1 53182U 22083BC  22307.91667824 -.00039549  00000-0 -69197-3 0  9998,2 53182  53.2175 226.6489 0001244  87.6496 269.9629 15.49901737 17841,6795.15,92.909,417.861,416.17,0.0
53182.0,STARLINK-4278,PAYLOAD,2022-11-04 00:00:00,15.49969585,0.00014,53.2173,226.2513,86.584,16.2437,-0.0041652,-0.00230714,0.0,0 STARLINK-4278,1 53182U 22083BC  22308.00001157 -.00230714  00000-0 -41652-2 0  9992,2 53182  53.2173 226.2513 0001400  86.5840  16.2437 15.49969585  1307,6794.9519999999975,92.905,417.768,415.866,0.0
53182.0,STARLINK-4278,PAYLOAD,2022-11-04 06:00:00,15.49968047,0.0001281999999999,53.2173,225.0567,82.9976,335.5259,-0.012397,-0.00650356,0.0,0 STARLINK-4278,1 53182U 22083BC  22308.25001157 -.00650356  00000-0 -12397-1 0  9990,2 53182  53.2173 225.0567 0001282  82.9976 335.5259 15.49968047 17905,6794.956,92.905,417.693,415.95,0.0
53182.0,STARLINK-4278,PAYLOAD,2022-11-04 14:00:01,15.495299,0.0001163,53.2175,223.4614,81.7308,37.5358,-0.020748,-0.01056075,0.0,0 STARLINK-4278,1 53182U 22083BC  22308.58334491 -.01056075  00000-0 -20748-1 0  9994,2 53182  53.2175 223.4614 0001163  81.7308  37.5358 15.49529900 17951,6796.236999999999,92.931,418.893,417.312,0.0
53182.0,STARLINK-4278,PAYLOAD,2022-11-05 00:00:00,15.48580547,0.0001159,53.2173,221.4733,89.3101,194.8435,-0.021449,-0.01055698,0.0,0 STARLINK-4278,1 53182U 22083BC  22309.00001157 -.01055698  00000-0 -21449-1 0  9991,2 53182  53.2173 221.4733 0001159  89.3101 194.8435 15.48580547  1307,6799.015,92.988,421.668,420.092,0.0
53182.0,STARLINK-4278,PAYLOAD,2022-11-05 14:00:01,15.47249955,0.0001093,53.2173,218.691,92.6779,203.9897,-0.022423,-0.01053455,0.0,0 STARLINK-4278,1 53182U 22083BC  22309.58335648 -.01053455  00000-0 -22423-1 0  9991,2 53182  53.2173 218.6910 0001093  92.6779 203.9897 15.47249955  1305,6802.9119999999975,93.068,425.521,424.033,0.0
53182.0,STARLINK-4278,PAYLOAD,2022-11-05 22:00:01,15.46493688,0.0001085,53.2176,217.105,86.0497,267.9028,-0.023135,-0.01058151,0.0,0 STARLINK-4278,1 53182U 22083BC  22309.91668981 -.01058151  00000-0 -23135-1 0  9996,2 53182  53.2176 217.1050 0001085  86.0497 267.9028 15.46493688  1301,6805.13,93.114,427.733,426.256,0.0
53182.0,STARLINK-4278,PAYLOAD,2022-11-06 06:00:00,15.45744531,0.0001114,53.2165,215.5225,84.8992,325.3561,-0.024057,-0.0107082,0.0,0 STARLINK-4278,1 53182U 22083BC  22310.25001157 -.01070820  00000-0 -24057-1 0  9992,2 53182  53.2165 215.5225 0001114  84.8992 325.3561 15.45744531 18218,6807.328,93.159,429.952,428.435,0.0
53182.0,STARLINK-4278,PAYLOAD,2022-11-06 14:00:01,15.44971448,0.0001159,53.2171,213.9373,87.2638,18.4612,-0.024261,-0.01053266,0.0,0 STARLINK-4278,1 53182U 22083BC  22310.58334491 -.01053266  00000-0 -24261-1 0  9990,2 53182  53.2171 213.9373 0001159  87.2638  18.4612 15.44971448  1301,6809.599,93.206,432.253,430.675,0.0
